NORAD_CAT_ID,OBJECT_NAME,OBJECT_TYPE,EPOCH,MEAN_MOTION,ECCENTRICITY,INCLINATION,RA_OF_ASC_NODE,ARG_OF_PERICENTER,MEAN_ANOMALY,BSTAR,MEAN_MOTION_DOT,MEAN_MOTION_DDOT,TLE_LINE0,TLE_LINE1,TLE_LINE2,SEMIMAJOR_AXIS,PERIOD,APOGEE,PERIGEE,DECAYED
55784.0,STARLINK-5797,PAYLOAD,2023-03-08 20:00:01,15.95044367,0.0033384,69.9998,141.6025,164.8455,254.6782,-0.00244,-0.01005181,0.00031476,0 STARLINK-5797,1 55784U 23028AV  23067.83334491 -.01005181  31476-3 -24400-2 0  9991,2 55784  69.9998 141.6025 0033384 164.8455 254.6782 15.95044367  1452,6666.328,90.28,310.448,265.938,0.0
55784.0,STARLINK-5797,PAYLOAD,2023-03-08 21:15:27,15.95166837,0.0035309,69.9939,141.4475,162.9379,197.3026,-0.00073919,-0.00310625,3.6848e-05,0 STARLINK-5797,1 55784U 23028AV  23067.88573470 -.00310625  36848-4 -73919-3 0  9998,2 55784  69.9939 141.4475 0035309 162.9379 197.3026 15.95166837  1469,6665.987,90.273,311.388,264.315,0.0
55784.0,STARLINK-5797,PAYLOAD,2023-03-09 20:00:01,15.93092915,0.0022834,69.9995,138.6889,169.9447,226.4064,-0.0028257,-0.01017361,0.00031544,0 STARLINK-5797,1 55784U 23028AV  23068.83334491 -.01017361  31544-3 -28257-2 0  9995,2 55784  69.9995 138.6889 0022834 169.9447 226.4064 15.93092915  1616,6671.771,90.39,308.87,278.401,0.0
55784.0,STARLINK-5797,PAYLOAD,2023-03-09 22:00:00,15.92910091,0.0022347,69.9999,138.4465,170.2561,343.8539,-0.0027463,-0.00978529,0.000293,0 STARLINK-5797,1 55784U 23028AV  23068.91667824 -.00978529  29300-3 -27463-2 0  9999,2 55784  69.9999 138.4465 0022347 170.2561 343.8539 15.92910091  1624,6672.281,90.401,309.057,279.236,0.0
55784.0,STARLINK-5797,PAYLOAD,2023-03-10 06:00:00,15.92291778,0.001737,69.9997,137.4771,175.3136,89.2989,-0.0030516,-0.01042193,0.00032715,0 STARLINK-5797,1 55784U 23028AV  23069.25001157 -.01042193  32715-3 -30516-2 0  9995,2 55784  69.9997 137.4771 0017370 175.3136  89.2989 15.92291778  1674,6674.008,90.436,307.466,284.281,0.0
55784.0,STARLINK-5797,PAYLOAD,2023-03-10 14:00:01,15.91629643,0.0014612,70.0,136.509,182.0444,192.3066,-0.0031229,-0.01026393,0.00031594,0 STARLINK-5797,1 55784U 23028AV  23069.58334491 -.01026393  31594-3 -31229-2 0  9991,2 55784  70.0000 136.5090 0014612 182.0444 192.3066 15.91629643  1733,6675.859,90.473,307.479,287.969,0.0
55784.0,STARLINK-5797,PAYLOAD,2023-03-10 22:00:00,15.90955265,0.001262,70.0001,135.5421,188.6473,294.6638,-0.0031034,-0.00983095,0.00028979,0 STARLINK-5797,1 55784U 23028AV  23069.91667824 -.00983095  28979-3 -31034-2 0  9994,2 55784  70.0001 135.5421 0012620 188.6473 294.6638 15.90955265  1789,6677.745,90.512,308.038,291.183,0.0
55784.0,STARLINK-5797,PAYLOAD,2023-03-11 06:00:00,15.9033363,0.0009477,69.9997,134.5749,206.401,25.0661,-0.0033903,-0.01036796,0.00031779,0 STARLINK-5797,1 55784U 23028AV  23070.25001157 -.01036796  31779-3 -33903-2 0  9991,2 55784  69.9997 134.5749 0009477 206.4010  25.0661 15.90333630  1838,6679.486,90.547,307.681,295.02,0.0
55784.0,STARLINK-5797,PAYLOAD,2023-03-11 14:00:01,15.89682749,0.000863,69.9997,133.6103,224.8197,114.1013,-0.0035335,-0.01044855,0.00032033,0 STARLINK-5797,1 55784U 23028AV  23070.58335648 -.01044855  32033-3 -35335-2 0  9992,2 55784  69.9997 133.6103 0008630 224.8197 114.1013 15.89682749  1884,6681.309,90.584,308.94,297.408,0.0
55784.0,STARLINK-5797,PAYLOAD,2023-03-11 22:00:00,15.89025987,0.0008437,69.9994,132.6455,247.7305,197.7298,-0.0036064,-0.01031818,0.00031099,0 STARLINK-5797,1 55784U 23028AV  23070.91667824 -.01031818  31099-3 -36064-2 0  9999,2 55784  69.9994 132.6455 0008437 247.7305 197.7298 15.89025987  1944,6683.149,90.622,310.653,299.376,0.0
55784.0,STARLINK-5797,PAYLOAD,2023-03-12 06:00:00,15.8834848,0.0009255,69.9998,131.6824,263.2441,288.0498,-0.0035694,-0.00988303,0.00028528,0 STARLINK-5797,1 55784U 23028AV  23071.25001157 -.00988303  28528-3 -35694-2 0  9998,2 55784  69.9998 131.6824 0009255 263.2441 288.0498 15.88348480  1996,6685.05,90.66,313.102,300.728,0.0
55784.0,STARLINK-5797,PAYLOAD,2023-03-12 14:00:01,15.8769479,0.0008868,70.0,130.72,269.4222,26.912,-0.0036747,-0.00896251,0.0,0 STARLINK-5797,1 55784U 23028AV  23071.58334491 -.00896251  00000-0 -36747-2 0  9996,2 55784  70.0000 130.7200 0008868 269.4222  26.9120 15.87694790  1308,6686.885,90.698,314.68,302.82,0.0
55784.0,STARLINK-5797,PAYLOAD,2023-03-12 22:00:00,15.87062384,0.0004745,69.9998,129.7585,273.9767,126.6077,-0.0039481,-0.00926411,0.0,0 STARLINK-5797,1 55784U 23028AV  23071.91667824 -.00926411  00000-0 -39481-2 0  9992,2 55784  69.9998 129.7585 0004745 273.9767 126.6077 15.87062384  1306,6688.661,90.734,313.7,307.352,0.0
55784.0,STARLINK-5797,PAYLOAD,2023-03-13 06:00:00,15.86368509,0.0003439,70.0,128.7974,272.8344,231.2438,-0.0037949,-0.00865722,0.0,0 STARLINK-5797,1 55784U 23028AV  23072.25001157 -.00865722  00000-0 -37949-2 0  9995,2 55784  70.0000 128.7974 0003439 272.8344 231.2438 15.86368509  2157,6690.611,90.773,314.777,310.175,0.0
55784.0,STARLINK-5797,PAYLOAD,2023-03-13 14:00:01,15.85745407,0.0003583,70.0002,127.8378,265.0227,341.7354,-0.0041139,-0.00906256,0.0,0 STARLINK-5797,1 55784U 23028AV  23072.58334491 -.00906256  00000-0 -41139-2 0  9995,2 55784  70.0002 127.8378 0003583 265.0227 341.7354 15.85745407  1306,6692.364,90.809,316.627,311.831,0.0
55784.0,STARLINK-5797,PAYLOAD,2023-03-13 22:00:00,15.85092536,0.0003719,70.0002,126.8787,272.1691,76.5009,-0.0042459,-0.0090625,0.0,0 STARLINK-5797,1 55784U 23028AV  23072.91667824 -.00906250  00000-0 -42459-2 0  9991,2 55784  70.0002 126.8787 0003719 272.1691  76.5009 15.85092536  2268,6694.201,90.846,318.556,313.577,0.0
55784.0,STARLINK-5797,PAYLOAD,2023-03-14 14:00:01,15.83784251,0.0003509,70.0003,124.964,268.8217,281.3247,-0.0044837,-0.00899323,0.0,0 STARLINK-5797,1 55784U 23028AV  23073.58334491 -.00899323  00000-0 -44837-2 0  9990,2 55784  70.0003 124.9640 0003509 268.8217 281.3247 15.83784251  1303,6697.887,90.921,322.102,317.402,0.0
55784.0,STARLINK-5797,PAYLOAD,2023-03-14 22:00:00,15.83140556,0.0003599,70.0002,124.0074,273.4549,16.2529,-0.0047011,-0.00913105,0.0,0 STARLINK-5797,1 55784U 23028AV  23073.91667824 -.00913105  00000-0 -47011-2 0  9998,2 55784  70.0002 124.0074 0003599 273.4549  16.2529 15.83140556  2418,6699.703,90.958,323.979,319.156,0.0
55784.0,STARLINK-5797,PAYLOAD,2023-03-15 14:00:01,15.8182964,0.0003546,70.0,122.0983,267.2725,219.2192,-0.0049371,-0.00902633,0.0,0 STARLINK-5797,1 55784U 23028AV  23074.58334491 -.00902633  00000-0 -49371-2 0  9998,2 55784  70.0000 122.0983 0003546 267.2725 219.2192 15.81829640  1306,6703.404,91.034,327.646,322.892,0.0
55784.0,STARLINK-5797,PAYLOAD,2023-03-15 22:00:00,15.81181744,0.0003527,70.0001,121.1446,274.5672,309.1403,-0.0051303,-0.00909337,0.0,0 STARLINK-5797,1 55784U 23028AV  23074.91667824 -.00909337  00000-0 -51303-2 0  9990,2 55784  70.0001 121.1446 0003527 274.5672 309.1403 15.81181744  2572,6705.235,91.071,329.465,324.735,0.0
55784.0,STARLINK-5797,PAYLOAD,2023-03-16 14:00:01,15.79874601,0.0003642,70.0,119.2407,273.6873,142.109,-0.0054152,-0.00904251,0.0,0 STARLINK-5797,1 55784U 23028AV  23075.58334491 -.00904251  00000-0 -54152-2 0  9990,2 55784  70.0000 119.2407 0003642 273.6873 142.1090 15.79874601  1302,6708.933,91.146,333.241,328.354,0.0
55784.0,STARLINK-5797,PAYLOAD,2023-03-16 22:00:00,15.79220803,0.0003482,70.0002,118.29,271.0522,239.6157,-0.0055689,-0.0090263,0.0,0 STARLINK-5797,1 55784U 23028AV  23075.91667824 -.00902630  00000-0 -55689-2 0  9991,2 55784  70.0002 118.2900 0003482 271.0522 239.6157 15.79220803  2739,6710.784,91.184,334.986,330.312,0.0
55784.0,STARLINK-5797,PAYLOAD,2023-03-17 14:00:01,15.77918554,0.0003657,69.9999,116.3919,271.8072,66.2532,-0.0059192,-0.00904397,0.0,0 STARLINK-5797,1 55784U 23028AV  23076.58334491 -.00904397  00000-0 -59192-2 0  9991,2 55784  69.9999 116.3919 0003657 271.8072  66.2532 15.77918554  1300,6714.476,91.259,338.796,333.885,0.0
55784.0,STARLINK-5797,PAYLOAD,2023-03-17 22:00:00,15.77261942,0.000359,70.0001,115.4437,271.0235,159.5631,-0.0060554,-0.00898918,0.0,0 STARLINK-5797,1 55784U 23028AV  23076.91667824 -.00898918  00000-0 -60554-2 0  9992,2 55784  70.0001 115.4437 0003590 271.0235 159.5631 15.77261942  2894,6716.339,91.297,340.615,335.793,0.0
55784.0,STARLINK-5797,PAYLOAD,2023-03-18 22:00:00,15.75303055,0.0003693,70.0002,112.6055,278.1581,65.3066,-0.0065777,-0.00895728,0.0,0 STARLINK-5797,1 55784U 23028AV  23077.91667824 -.00895728  00000-0 -65777-2 0  9991,2 55784  70.0002 112.6055 0003693 278.1581  65.3066 15.75303055  3051,6721.906,91.411,346.253,341.289,0.0
55784.0,STARLINK-5797,PAYLOAD,2023-03-19 14:00:01,15.74001268,0.000345,69.9999,110.7183,272.1351,249.3353,-0.0069948,-0.00899447,0.0,0 STARLINK-5797,1 55784U 23028AV  23078.58334491 -.00899447  00000-0 -69948-2 0  9992,2 55784  69.9999 110.7183 0003450 272.1351 249.3353 15.74001268  3158,6725.612,91.487,349.797,345.156,0.0
55784.0,STARLINK-5797,PAYLOAD,2023-03-19 22:00:00,15.73349163,0.0003512,70.0001,109.7757,267.299,342.0016,-0.0071992,-0.00899985,0.0,0 STARLINK-5797,1 55784U 23028AV  23078.91667824 -.00899985  00000-0 -71992-2 0  9997,2 55784  70.0001 109.7757 0003512 267.2990 342.0016 15.73349163  1303,6727.47,91.525,351.698,346.972,0.0
55784.0,STARLINK-5797,PAYLOAD,2023-03-20 06:00:00,15.72715242,0.0003689,69.9914,108.8255,269.9711,66.3743,-0.0077681,-0.00940467,0.0,0 STARLINK-5797,1 55784U 23028AV  23079.25001157 -.00940467  00000-0 -77681-2 0  9999,2 55784  69.9914 108.8255 0003689 269.9711  66.3743 15.72715242  3265,6729.278,91.561,353.625,348.66,0.0
55784.0,STARLINK-5797,PAYLOAD,2023-03-20 14:00:01,15.72064168,0.0003593,69.9907,107.8854,275.3187,147.2822,-0.0078357,-0.00924398,0.0,0 STARLINK-5797,1 55784U 23028AV  23079.58334491 -.00924398  00000-0 -78357-2 0  9991,2 55784  69.9907 107.8854 0003593 275.3187 147.2822 15.72064168  1307,6731.135,91.599,355.419,350.582,0.0
